[{"OBJECT_NAME":"STARLINK-5562","OBJECT_ID":"2023-058V","EPOCH":"2026-03-09T22:09:34.119648","MEAN_MOTION":15.01261223,"ECCENTRICITY":0.00016906,"INCLINATION":97.604,"RA_OF_ASC_NODE":70.411,"ARG_OF_PERICENTER":53.5061,"MEAN_ANOMALY":306.6319,"EPHEMERIS_TYPE":0,"CLASSIFICATION_TYPE":"U","NORAD_CAT_ID":56336,"ELEMENT_SET_NO":999,"REV_AT_EPOCH":15816,"BSTAR":-2.509918e-6,"MEAN_MOTION_DOT":-9.1e-7,"MEAN_MOTION_DDOT":0},{"OBJECT_NAME":"TITAN 4B DEB","OBJECT_ID":"2000-047C","EPOCH":"2026-03-09T02:32:29.436864","MEAN_MOTION":14.9171765,"ECCENTRICITY":0.00575622,"INCLINATION":67.9942,"RA_OF_ASC_NODE":238.0618,"ARG_OF_PERICENTER":121.1285,"MEAN_ANOMALY":239.5519,"EPHEMERIS_TYPE":0,"CLASSIFICATION_TYPE":"U","NORAD_CAT_ID":27469,"ELEMENT_SET_NO":999,"REV_AT_EPOCH":28480,"BSTAR":9.2128473e-5,"MEAN_MOTION_DOT":8.38e-6,"MEAN_MOTION_DDOT":0}]
